STARLINK-32615          
1 62034U 24216C   26068.81617889  .00018324  00000+0  67424-3 0  9993
2 62034  43.0001 255.7206 0002946 281.4764  78.5756 15.27553790 72736
KUIPER-00209            
1 67776U 26030N   26068.61786546  .00035298  00000+0  11963-2 0  9997
2 67776  51.8838 220.0775 0012191  59.1967 301.0215 15.30161950  5077
